OBJECT_NAME,OBJECT_ID,EPOCH,MEAN_MOTION,ECCENTRICITY,INCLINATION,RA_OF_ASC_NODE,ARG_OF_PERICENTER,MEAN_ANOMALY,EPHEMERIS_TYPE,CLASSIFICATION_TYPE,NORAD_CAT_ID,ELEMENT_SET_NO,REV_AT_EPOCH,BSTAR,MEAN_MOTION_DOT,MEAN_MOTION_DDOT
STARLINK-35277,2025-221K,2026-06-10T21:48:58.356864,15.34406305,.00015349,53.1621,14.7890,65.1452,294.9710,0,U,65832,999,4036,.3916895E-3,.12883E-3,0
STARLINK-35345,2025-221L,2026-06-10T21:45:56.637792,15.34397961,.00015385,53.1621,14.7691,73.5346,286.5826,0,U,65833,999,4036,.60034827E-3,.1996E-3,0
STARLINK-35320,2025-221M,2026-06-10T20:34:53.680800,15.30207780,.00011849,53.1617,15.8866,78.5555,281.5579,0,U,65834,999,3899,.92613573E-3,.27177E-3,0
STARLINK-35349,2025-221N,2026-06-10T20:44:01.626144,15.30202108,.00009767,53.1609,15.9274,80.4273,279.6838,0,U,65835,999,3899,.90982391E-3,.26686E-3,0
STARLINK-35356,2025-221P,2026-06-10T21:06:38.996928,15.30238173,.00011478,53.1602,15.3157,113.1621,246.9500,0,U,65836,999,3900,.66276295E-3,.19344E-3,0
STARLINK-35314,2025-221Q,2026-06-11T06:47:29.945472,15.34421630,.00010191,53.1592,12.8549,72.8667,287.2447,0,U,65837,999,3907,.57803226E-3,.19217E-3,0
STARLINK-35324,2025-221R,2026-06-10T20:48:34.271712,15.30203061,.0001252,53.1603,15.9443,87.6873,272.4271,0,U,65838,999,3899,.4101923E-3,.1181E-3,0
STARLINK-35102,2025-221S,2026-06-10T21:42:54.550656,15.34408966,.00010439,53.1598,14.7638,116.2233,243.8877,0,U,65839,999,3901,.6357497E-3,.2117E-3,0
STARLINK-35364,2025-221T,2026-06-10T20:42:18.687456,15.34404841,.0001222,53.1602,14.5030,76.3827,283.7312,0,U,65840,999,3901,.75528395E-3,.25232E-3,0
STARLINK-35298,2025-221V,2026-06-10T21:12:36.718848,15.34409683,.00011711,53.1599,14.6240,49.5475,310.5630,0,U,65842,999,3901,.64253422E-3,.21401E-3,0
STARLINK-35301,2025-221W,2026-06-10T20:57:27.734688,15.34387999,.00014507,53.1609,14.5672,106.7400,253.3762,0,U,65843,999,3901,.63879679E-3,.2126E-3,0
STARLINK-35148,2025-221X,2026-06-10T20:54:25.933536,15.34419465,.00009744,53.1603,14.5523,32.9153,327.1910,0,U,65844,999,3901,.9726243E-3,.32649E-3,0
STARLINK-35302,2025-221Y,2026-06-10T20:48:22.179168,15.34388508,.0001128,53.1607,14.5260,79.7192,280.3938,0,U,65845,999,3901,.6873607E-3,.2291E-3,0
STARLINK-35290,2025-221Z,2026-06-10T21:36:50.659776,15.34415916,.00014788,53.1599,14.7276,139.7979,220.3134,0,U,65846,999,3901,.69505193E-3,.23192E-3,0
STARLINK-35262,2025-221AA,2026-06-10T20:56:10.004064,15.30203619,.00010126,53.1602,15.9762,87.9663,272.1454,0,U,65847,999,4034,.8792646E-3,.25775E-3,0
STARLINK-35308,2025-221AB,2026-06-10T21:09:35.506944,15.34360096,.00011414,53.1599,14.6134,88.2666,271.8467,0,U,65848,999,4036,.50855438E-3,.16823E-3,0
STARLINK-35231,2025-221AC,2026-06-10T21:00:43.553376,15.30204047,.00011583,53.1596,15.9951,88.4907,271.6227,0,U,65849,999,4034,.64984733E-3,.18939E-3,0
STARLINK-35252,2025-221AD,2026-06-10T20:51:37.101024,15.30229588,.00014817,53.1606,15.9574,82.6374,277.4795,0,U,65850,999,4034,.49680774E-3,.14397E-3,0
STARLINK-35208,2025-223A,2026-06-10T20:51:17.614368,15.34361912,.00014389,53.1591,220.5331,93.3356,266.7811,0,U,65854,999,3848,.74503E-3,.24849E-3,0
STARLINK-35200,2025-223B,2026-06-10T21:13:39.259488,15.30201934,.00012715,53.1599,221.3337,70.7875,289.3263,0,U,65855,999,3847,.72984622E-3,.2132E-3,0
STARLINK-35459,2025-223C,2026-06-10T20:45:12.405024,15.34398140,.00006418,53.1579,220.5067,95.8274,264.2802,0,U,65856,999,3848,.48749319E-3,.16129E-3,0
STARLINK-35489,2025-223D,2026-06-10T10:24:59.373792,15.34398819,.00025013,53.1599,222.7903,94.8017,265.3271,0,U,65857,999,3841,.66318286E-3,.22096E-3,0
STARLINK-35199,2025-223E,2026-06-10T20:52:21.790560,15.30209954,.00011175,53.1584,221.2429,242.4625,117.6262,0,U,65858,999,3847,.57631543E-3,.16753E-3,0
STARLINK-35408,2025-223F,2026-06-10T21:30:38.756160,15.34413000,.00006502,53.1596,220.7045,311.1059,48.9888,0,U,65859,999,3848,.56964989E-3,.18927E-3,0
STARLINK-35303,2025-223G,2026-06-10T21:24:33.525216,15.34435345,.00009626,53.1600,220.6737,263.6588,96.4305,0,U,65860,999,3848,.10227763E-2,.34377E-3,0
STARLINK-35258,2025-223H,2026-06-10T11:31:31.229184,15.34413652,.00013263,53.1596,222.3698,71.7900,288.3247,0,U,65861,999,3842,.59457137E-3,.19774E-3,0
STARLINK-35386,2025-223J,2026-06-10T20:33:13.169952,15.34407696,.00010692,53.1574,221.1599,69.4965,290.6152,0,U,65862,999,3847,.80352836E-3,.26876E-3,0
STARLINK-35469,2025-223K,2026-06-10T11:43:38.293824,15.34407069,.00011094,53.1602,222.4236,95.1057,265.0072,0,U,65863,999,3842,.32390058E-3,.10585E-3,0
STARLINK-35471,2025-223L,2026-06-10T20:41:44.506752,15.30196975,.0001049,53.1569,221.1959,90.6884,269.4237,0,U,65864,999,3847,.4885254E-3,.14136E-3,0
STARLINK-35475,2025-223M,2026-06-10T21:00:22.382784,15.34415290,.00012191,53.1583,220.5679,86.8286,273.2856,0,U,65865,999,3848,.8483401E-3,.28409E-3,0
