STARLINK-35277          
1 65832U 25221K   26161.90900876  .00012883  00000+0  39169-3 0  9993
2 65832  53.1621  14.7890 0001534  65.1452 294.9710 15.34406305 40365
STARLINK-35345          
1 65833U 25221L   26161.90690553  .00019960  00000+0  60035-3 0  9991
2 65833  53.1621  14.7691 0001538  73.5346 286.5826 15.34397961 40366
STARLINK-35320          
1 65834U 25221M   26161.85756575  .00027177  00000+0  92614-3 0  9990
2 65834  53.1617  15.8866 0001184  78.5555 281.5579 15.30207780 38993
STARLINK-35349          
1 65835U 25221N   26161.86390771  .00026686  00000+0  90982-3 0  9994
2 65835  53.1609  15.9274 0000976  80.4273 279.6838 15.30202108 38991
STARLINK-35356          
1 65836U 25221P   26161.87961802  .00019344  00000+0  66276-3 0  9997
2 65836  53.1602  15.3157 0001147 113.1621 246.9500 15.30238173 39008
STARLINK-35314          
1 65837U 25221Q   26162.28298548  .00019217  00000+0  57803-3 0  9999
2 65837  53.1592  12.8549 0001019  72.8667 287.2447 15.34421630 39074
STARLINK-35324          
1 65838U 25221R   26161.86706333  .00011810  00000+0  41019-3 0  9992
2 65838  53.1603  15.9443 0001252  87.6873 272.4271 15.30203061 38990
STARLINK-35102          
1 65839U 25221S   26161.90479804  .00021170  00000+0  63575-3 0  9999
2 65839  53.1598  14.7638 0001043 116.2233 243.8877 15.34408966 39017
STARLINK-35364          
1 65840U 25221T   26161.86271629  .00025232  00000+0  75528-3 0  9995
2 65840  53.1602  14.5030 0001222  76.3827 283.7312 15.34404841 39018
STARLINK-35298          
1 65842U 25221V   26161.88375832  .00021401  00000+0  64253-3 0  9997
2 65842  53.1599  14.6240 0001171  49.5475 310.5630 15.34409683 39014
STARLINK-35301          
1 65843U 25221W   26161.87323767  .00021260  00000+0  63880-3 0  9995
2 65843  53.1609  14.5672 0001450 106.7400 253.3762 15.34387999 39014
STARLINK-35148          
1 65844U 25221X   26161.87113349  .00032649  00000+0  97262-3 0  9993
2 65844  53.1603  14.5523 0000974  32.9153 327.1910 15.34419465 39018
STARLINK-35302          
1 65845U 25221Y   26161.86692337  .00022910  00000+0  68736-3 0  9996
2 65845  53.1607  14.5260 0001128  79.7192 280.3938 15.34388508 39018
STARLINK-35290          
1 65846U 25221Z   26161.90058634  .00023192  00000+0  69505-3 0  9996
2 65846  53.1599  14.7276 0001478 139.7979 220.3134 15.34415916 39012
STARLINK-35262          
1 65847U 25221AA  26161.87233801  .00025775  00000+0  87926-3 0  9990
2 65847  53.1602  15.9762 0001012  87.9663 272.1454 15.30203619 40348
STARLINK-35308          
1 65848U 25221AB  26161.88166096  .00016823  00000+0  50855-3 0  9998
2 65848  53.1599  14.6134 0001141  88.2666 271.8467 15.34360096 40362
STARLINK-35231          
1 65849U 25221AC  26161.87550409  .00018939  00000+0  64985-3 0  9992
2 65849  53.1596  15.9951 0001158  88.4907 271.6227 15.30204047 40348
STARLINK-35252          
1 65850U 25221AD  26161.86917941  .00014397  00000+0  49681-3 0  9991
2 65850  53.1606  15.9574 0001481  82.6374 277.4795 15.30229588 40347
STARLINK-35208          
1 65854U 25223A   26161.86895387  .00024849  00000+0  74503-3 0  9990
2 65854  53.1591 220.5331 0001438  93.3356 266.7811 15.34361912 38484
STARLINK-35200          
1 65855U 25223B   26161.88448217  .00021320  00000+0  72985-3 0  9992
2 65855  53.1599 221.3337 0001271  70.7875 289.3263 15.30201934 38472
STARLINK-35459          
1 65856U 25223C   26161.86472691  .00016129  00000+0  48749-3 0  9996
2 65856  53.1579 220.5067 0000641  95.8274 264.2802 15.34398140 38485
STARLINK-35489          
1 65857U 25223D   26161.43402053  .00022096  00000+0  66318-3 0  9997
2 65857  53.1599 222.7903 0002501  94.8017 265.3271 15.34398819 38410
STARLINK-35199          
1 65858U 25223E   26161.86969665  .00016753  00000+0  57632-3 0  9994
2 65858  53.1584 221.2429 0001117 242.4625 117.6262 15.30209954 38472
STARLINK-35408          
1 65859U 25223F   26161.89628190  .00018927  00000+0  56965-3 0  9996
2 65859  53.1596 220.7045 0000650 311.1059  48.9888 15.34413000 38484
STARLINK-35303          
1 65860U 25223G   26161.89205469  .00034377  00000+0  10228-2 0  9996
2 65860  53.1600 220.6737 0000962 263.6588  96.4305 15.34435345 38481
STARLINK-35258          
1 65861U 25223H   26161.48022256  .00019774  00000+0  59457-3 0  9995
2 65861  53.1596 222.3698 0001326  71.7900 288.3247 15.34413652 38420
STARLINK-35386          
1 65862U 25223J   26161.85640243  .00026876  00000+0  80353-3 0  9999
2 65862  53.1574 221.1599 0001069  69.4965 290.6152 15.34407696 38470
STARLINK-35469          
1 65863U 25223K   26161.48863766  .00010585  00000+0  32390-3 0  9994
2 65863  53.1602 222.4236 0001109  95.1057 265.0072 15.34407069 38424
STARLINK-35471          
1 65864U 25223L   26161.86232068  .00014136  00000+0  48853-3 0  9999
2 65864  53.1569 221.1959 0001049  90.6884 269.4237 15.30196975 38479
STARLINK-35475          
1 65865U 25223M   26161.87525906  .00028409  00000+0  84834-3 0  9994
2 65865  53.1583 220.5679 0001219  86.8286 273.2856 15.34415290 38489
